COSMOS 2058             
1 20465U 90010A   26183.55463921  .00003270  00000+0  18816-3 0  9990
2 20465  82.4692 294.2006 0008415 301.7582  58.2828 15.12107026959592
SL-14 R/B               
1 20466U 90010B   26183.40994732  .00000445  00000+0  51008-4 0  9996
2 20466  82.5023 159.6484 0018223 282.9744  76.9436 14.83656445945491
SL-14 R/B               
1 20511U 90018B   26183.53823203  .00000478  00000+0  56879-4 0  9990
2 20511  82.5221 115.7602 0017659  75.4384 284.8788 14.82227004939592
HST                     
1 20580U 90037B   26183.59378340  .00007699  00000+0  24258-3 0  9997
2 20580  28.4736 335.2665 0001605 334.9544  25.0974 15.30932590790933
SL-16 R/B               
1 20625U 90046B   26183.64161286 -.00000226  00000+0 -92201-4 0  9997
2 20625  70.9991  56.4917 0012523 136.5511 223.6601 14.15024278864652
COSMOS 2084             
1 20663U 90055A   26183.59735992  .00002626  00000+0  19203-3 0  9998
2 20663  62.7914 303.4912 0006645 304.0459  56.0010 15.06181980953622
SL-6 R/B(2)             
1 20666U 90055D   26183.54061832  .00001715  00000+0  13564-3 0  9993
2 20666  62.7804 223.1286 0043131   7.2152 352.9559 15.04050390955466
SL-8 R/B                
1 20775U 90078B   26183.41154353  .00028886  00000+0  81708-3 0  9999
2 20775  82.9027 147.8811 0346430 347.0278  12.2191 14.93098513826399
SL-8 R/B                
1 21088U 91006B   26183.48471486  .00000098  00000+0  82287-4 0  9994
2 21088  82.9421  84.6538 0023844  74.2040  98.8521 13.77507497779870
OKEAN-3                 
1 21397U 91039A   26183.55991632  .00002321  00000+0  15980-3 0  9997
2 21397  82.5147 225.4744 0012292 301.1364  58.8656 15.05391663882312
COSMOS 2151             
1 21422U 91042A   26183.66472080  .00001670  00000+0  13029-3 0  9991
2 21422  82.4971 332.7429 0013096  36.6729 323.5389 15.00483683880430
SL-14 R/B               
1 21423U 91042B   26183.54800884  .00000424  00000+0  50579-4 0  9994
2 21423  82.4935 112.4915 0015910 219.6801 140.3250 14.81912095870089
ERS-1                   
1 21574U 91050A   26183.52595451  .00000403  00000+0  14324-3 0  9993
2 21574  98.7793 204.5986 0031179 219.9003 139.9892 14.39527602832253
ARIANE 40 R/B           
1 21610U 91050F   26183.58173456  .00000332  00000+0  11164-3 0  9997
2 21610  98.1867 231.3985 0004461  88.4058 271.7644 14.42966176835564
INTERCOSMOS 25          
1 21819U 91086A   26183.54655799  .00000800  00000+0  15824-3 0  9995
2 21819  82.6030 240.5154 1484038 229.2268 117.0478 12.12220272510603
SL-8 R/B                
1 21876U 92008B   26183.48968536  .00000144  00000+0  13248-3 0  9991
2 21876  82.9260 182.4095 0034858 171.5416 351.8297 13.75980974725209
SL-8 R/B                
1 21938U 92020B   26183.61078596  .00000052  00000+0  38698-4 0  9992
2 21938  82.9297  68.4009 0028666 339.7378  34.5129 13.75550105716939
USA 81                  
1 21949U 92023A   26183.64320427  .00000191  00000+0  63350-4 0  9990
2 21949  85.0063  65.0864 0002471  71.4644 288.6817 14.32402314111241
COSMOS 2219             
1 22219U 92076A   26183.32840450  .00000137  00000+0  96505-4 0  9995
2 22219  71.0607 138.4195 0017431  18.4128 341.7621 14.14108974734580
SL-16 R/B               
1 22220U 92076B   26183.62237451 -.00000180  00000+0 -65636-4 0  9992
2 22220  71.0013 306.2659 0015076 278.3563  92.3093 14.16874335738114
COSMOS 2221             
1 22236U 92080A   26183.45044647  .00001762  00000+0  15227-3 0  9993
2 22236  82.5034 169.1406 0014704 160.1512 200.0285 14.96574411797954
SL-16 R/B               
1 22285U 92093B   26183.57772859  .00000275  00000+0  16503-3 0  9993
2 22285  71.0216 123.0822 0003083 159.7107 200.4139 14.15464611729415
COSMOS 2228             
1 22286U 92094A   26183.58868892  .00002224  00000+0  18753-3 0  9994
2 22286  82.5185 127.2907 0015966 276.0385  83.9019 14.97642159793251
SL-16 R/B               
1 22566U 93016B   26183.41803618 -.00000270  00000+0 -11393-3 0  9991
2 22566  71.0088 334.2165 0009256 160.8392 199.3081 14.15313930718403
COSMOS 2242             
1 22626U 93024A   26183.42150521  .00002009  00000+0  17234-3 0  9996
2 22626  82.5188 156.9673 0014400 280.6682  79.2919 14.96951798797559
SL-16 R/B               
1 22803U 93059B   26183.31178248  .00000255  00000+0  14971-3 0  9991
2 22803  70.9899 129.4088 0015957  29.0539 331.1469 14.17249604695775
ARIANE 40 R/B           
1 22830U 93061H   26183.21842460  .00000236  00000+0  10213-3 0  9991
2 22830  98.4813 249.7629 0009652 308.9629  51.0695 14.32914162710500
COSMOS 2278             
1 23087U 94023A   26183.59373624 -.00000215  00000+0 -87485-4 0  9992
2 23087  71.0547 294.6913 0010258 224.4592 135.5708 14.14396592661055
SL-16 R/B               
1 23088U 94023B   26183.44724452 -.00000221  00000+0 -89305-4 0  9996
2 23088  70.9980 189.8839 0001769 169.6431 190.4729 14.15026358662321
SL-16 R/B               
1 23343U 94074B   26183.51899839  .00000498  00000+0  73170-4 0  9993
2 23343  97.6985 209.6008 0006048 194.5455 329.6049 14.79515630704226
