OBJECT_NAME,OBJECT_ID,EPOCH,MEAN_MOTION,ECCENTRICITY,INCLINATION,RA_OF_ASC_NODE,ARG_OF_PERICENTER,MEAN_ANOMALY,EPHEMERIS_TYPE,CLASSIFICATION_TYPE,NORAD_CAT_ID,ELEMENT_SET_NO,REV_AT_EPOCH,BSTAR,MEAN_MOTION_DOT,MEAN_MOTION_DDOT
COSMOS 2058,1990-010A,2026-07-02T13:18:40.827744,15.12107026,.00084157,82.4692,294.2006,301.7582,58.2828,0,U,20465,999,95959,.18815898E-3,.327E-4,0
SL-14 R/B,1990-010B,2026-07-02T09:50:19.448448,14.83656445,.00182235,82.5023,159.6484,282.9744,76.9436,0,U,20466,999,94549,.51008457E-4,.445E-5,0
SL-14 R/B,1990-018B,2026-07-02T12:55:03.247392,14.82227004,.00176599,82.5221,115.7602,75.4384,284.8788,0,U,20511,999,93959,.5687872E-4,.478E-5,0
HST,1990-037B,2026-07-02T14:15:02.885760,15.30932590,.0001605,28.4736,335.2665,334.9544,25.0974,0,U,20580,999,79093,.24257728E-3,.7699E-4,0
SL-16 R/B,1990-046B,2026-07-02T15:23:55.351104,14.15024278,.00125236,70.9991,56.4917,136.5511,223.6601,0,U,20625,999,86465,-.92200861E-4,-.226E-5,0
COSMOS 2084,1990-055A,2026-07-02T14:20:11.897088,15.06181980,.0006645,62.7914,303.4912,304.0459,56.0010,0,U,20663,999,95362,.19203476E-3,.2626E-4,0
SL-6 R/B(2),1990-055D,2026-07-02T12:58:29.422848,15.04050390,.00431311,62.7804,223.1286,7.2152,352.9559,0,U,20666,999,95546,.13563804E-3,.1715E-4,0
SL-8 R/B,1990-078B,2026-07-02T09:52:37.360992,14.93098513,.03464307,82.9027,147.8811,347.0278,12.2191,0,U,20775,999,82639,.81708194E-3,.28886E-3,0
SL-8 R/B,1991-006B,2026-07-02T11:37:59.363904,13.77507497,.00238449,82.9421,84.6538,74.2040,98.8521,0,U,21088,999,77987,.82287278E-4,.98E-6,0
OKEAN-3,1991-039A,2026-07-02T13:26:16.770048,15.05391663,.00122929,82.5147,225.4744,301.1364,58.8656,0,U,21397,999,88231,.15979891E-3,.2321E-4,0
COSMOS 2151,1991-042A,2026-07-02T15:57:11.877120,15.00483683,.00130966,82.4971,332.7429,36.6729,323.5389,0,U,21422,999,88043,.13029061E-3,.167E-4,0
SL-14 R/B,1991-042B,2026-07-02T13:09:07.963776,14.81912095,.00159108,82.4935,112.4915,219.6801,140.3250,0,U,21423,999,87008,.50578575E-4,.424E-5,0
ERS-1,1991-050A,2026-07-02T12:37:22.469664,14.39527602,.00311795,98.7793,204.5986,219.9003,139.9892,0,U,21574,999,83225,.14323949E-3,.403E-5,0
ARIANE 40 R/B,1991-050F,2026-07-02T13:57:41.865984,14.42966176,.00044616,98.1867,231.3985,88.4058,271.7644,0,U,21610,999,83556,.11164155E-3,.332E-5,0
INTERCOSMOS 25,1991-086A,2026-07-02T13:07:02.610336,12.12220272,.14840389,82.6030,240.5154,229.2268,117.0478,0,U,21819,999,51060,.15824308E-3,.8E-5,0
SL-8 R/B,1992-008B,2026-07-02T11:45:08.815104,13.75980974,.00348586,82.9260,182.4095,171.5416,351.8297,0,U,21876,999,72520,.13247914E-3,.144E-5,0
SL-8 R/B,1992-020B,2026-07-02T14:39:31.906944,13.75550105,.00286661,82.9297,68.4009,339.7378,34.5129,0,U,21938,999,71693,.38698148E-4,.52E-6,0
USA 81,1992-023A,2026-07-02T15:26:12.848928,14.32402314,.00024718,85.0063,65.0864,71.4644,288.6817,0,U,21949,999,11124,.63350008E-4,.191E-5,0
COSMOS 2219,1992-076A,2026-07-02T07:52:54.148800,14.14108974,.00174317,71.0607,138.4195,18.4128,341.7621,0,U,22219,999,73458,.96504939E-4,.137E-5,0
SL-16 R/B,1992-076B,2026-07-02T14:56:13.157664,14.16874335,.00150762,71.0013,306.2659,278.3563,92.3093,0,U,22220,999,73811,-.65636297E-4,-.18E-5,0
COSMOS 2221,1992-080A,2026-07-02T10:48:38.575008,14.96574411,.00147049,82.5034,169.1406,160.1512,200.0285,0,U,22236,999,79795,.15227054E-3,.1762E-4,0
SL-16 R/B,1992-093B,2026-07-02T13:51:55.750176,14.15464611,.00030835,71.0216,123.0822,159.7107,200.4139,0,U,22285,999,72941,.16502551E-3,.275E-5,0
COSMOS 2228,1992-094A,2026-07-02T14:07:42.722688,14.97642159,.00159667,82.5185,127.2907,276.0385,83.9019,0,U,22286,999,79325,.18753448E-3,.2224E-4,0
SL-16 R/B,1993-016B,2026-07-02T10:01:58.325952,14.15313930,.00092563,71.0088,334.2165,160.8392,199.3081,0,U,22566,999,71840,-.11392727E-3,-.27E-5,0
COSMOS 2242,1993-024A,2026-07-02T10:06:58.050144,14.96951798,.00144,82.5188,156.9673,280.6682,79.2919,0,U,22626,999,79755,.17234047E-3,.2009E-4,0
SL-16 R/B,1993-059B,2026-07-02T07:28:58.006272,14.17249604,.00159574,70.9899,129.4088,29.0539,331.1469,0,U,22803,999,69577,.1497073E-3,.255E-5,0
ARIANE 40 R/B,1993-061H,2026-07-02T05:14:31.885440,14.32914162,.00096528,98.4813,249.7629,308.9629,51.0695,0,U,22830,999,71050,.10212718E-3,.236E-5,0
COSMOS 2278,1994-023A,2026-07-02T14:14:58.811136,14.14396592,.00102588,71.0547,294.6913,224.4592,135.5708,0,U,23087,999,66105,-.87485113E-4,-.215E-5,0
SL-16 R/B,1994-023B,2026-07-02T10:44:01.926528,14.15026358,.0001769,70.9980,189.8839,169.6431,190.4729,0,U,23088,999,66232,-.89305137E-4,-.221E-5,0
SL-16 R/B,1994-074B,2026-07-02T12:27:21.460896,14.79515630,.00060489,97.6985,209.6008,194.5455,329.6049,0,U,23343,999,70422,.73169898E-4,.498E-5,0
